[
  {
    "OBJECT_NAME": "STARLINK-4059",
    "OBJECT_ID": "22086J",
    "EPOCH": "2025-11-11T03:26:45.232512",
    "MEAN_MOTION": 15.08839727,
    "ECCENTRICITY": 0.0001611,
    "INCLINATION": 53.2166,
    "RA_OF_ASC_NODE": 6.2955,
    "ARG_OF_PERICENTER": 93.6079,
    "MEAN_ANOMALY": 266.5097,
    "EPHEMERIS_TYPE": 0,
    "CLASSIFICATION_TYPE": "U",
    "NORAD_CAT_ID": 53250,
    "ELEMENT_SET_NO": 999,
    "REV_AT_EPOCH": 18318,
    "BSTAR": 0.00014834,
    "MEAN_MOTION_DOT": 2.074e-05,
    "MEAN_MOTION_DDOT": 0.0,
    "TLE_LINE1": "1 53250U 22086J   25315.14357908  .00002074  00000+0  14834-3 0  9991",
    "TLE_LINE2": "2 53250  53.2166   6.2955 0001611  93.6079 266.5097 15.08839727183186",
    "COMMENT": "Grouped by shell and plane from TLE"
  },
  {
    "OBJECT_NAME": "STARLINK-4129",
    "OBJECT_ID": "22086K",
    "EPOCH": "2025-11-11T04:46:14.808864",
    "MEAN_MOTION": 15.08842218,
    "ECCENTRICITY": 0.0001598,
    "INCLINATION": 53.2193,
    "RA_OF_ASC_NODE": 6.0483,
    "ARG_OF_PERICENTER": 91.422,
    "MEAN_ANOMALY": 268.6955,
    "EPHEMERIS_TYPE": 0,
    "CLASSIFICATION_TYPE": "U",
    "NORAD_CAT_ID": 53251,
    "ELEMENT_SET_NO": 999,
    "REV_AT_EPOCH": 18317,
    "BSTAR": 0.00018397,
    "MEAN_MOTION_DOT": 2.641e-05,
    "MEAN_MOTION_DDOT": 0.0,
    "TLE_LINE1": "1 53251U 22086K   25315.19878251  .00002641  00000+0  18397-3 0  9994",
    "TLE_LINE2": "2 53251  53.2193   6.0483 0001598  91.4220 268.6955 15.08842218183173",
    "COMMENT": "Grouped by shell and plane from TLE"
  },
  {
    "OBJECT_NAME": "STARLINK-4132",
    "OBJECT_ID": "22086L",
    "EPOCH": "2025-11-11T03:16:09.478848",
    "MEAN_MOTION": 15.08830663,
    "ECCENTRICITY": 0.0001577,
    "INCLINATION": 53.2195,
    "RA_OF_ASC_NODE": 6.2781,
    "ARG_OF_PERICENTER": 94.6088,
    "MEAN_ANOMALY": 265.5085,
    "EPHEMERIS_TYPE": 0,
    "CLASSIFICATION_TYPE": "U",
    "NORAD_CAT_ID": 53252,
    "ELEMENT_SET_NO": 999,
    "REV_AT_EPOCH": 18318,
    "BSTAR": 0.00013309000000000001,
    "MEAN_MOTION_DOT": 1.83e-05,
    "MEAN_MOTION_DDOT": 0.0,
    "TLE_LINE1": "1 53252U 22086L   25315.13622082  .00001830  00000+0  13309-3 0  9995",
    "TLE_LINE2": "2 53252  53.2195   6.2781 0001577  94.6088 265.5085 15.08830663183185",
    "COMMENT": "Grouped by shell and plane from TLE"
  },
  {
    "OBJECT_NAME": "STARLINK-4133",
    "OBJECT_ID": "22086M",
    "EPOCH": "2025-11-11T03:05:33.635328",
    "MEAN_MOTION": 15.08847122,
    "ECCENTRICITY": 0.0001476,
    "INCLINATION": 53.2192,
    "RA_OF_ASC_NODE": 6.3619,
    "ARG_OF_PERICENTER": 102.1617,
    "MEAN_ANOMALY": 257.9541,
    "EPHEMERIS_TYPE": 0,
    "CLASSIFICATION_TYPE": "U",
    "NORAD_CAT_ID": 53253,
    "ELEMENT_SET_NO": 999,
    "REV_AT_EPOCH": 18316,
    "BSTAR": 5.293900000000001e-06,
    "MEAN_MOTION_DOT": -2.04e-06,
    "MEAN_MOTION_DDOT": 0.0,
    "TLE_LINE1": "1 53253U 22086M   25315.12886152 -.00000204  00000+0  52939-5 0  9994",
    "TLE_LINE2": "2 53253  53.2192   6.3619 0001476 102.1617 257.9541 15.08847122183163",
    "COMMENT": "Grouped by shell and plane from TLE"
  },
  {
    "OBJECT_NAME": "STARLINK-4134",
    "OBJECT_ID": "22086N",
    "EPOCH": "2025-11-11T03:17:30.534144",
    "MEAN_MOTION": 15.08910572,
    "ECCENTRICITY": 8.36e-05,
    "INCLINATION": 53.2193,
    "RA_OF_ASC_NODE": 6.3322,
    "ARG_OF_PERICENTER": 66.2261,
    "MEAN_ANOMALY": 293.8819,
    "EPHEMERIS_TYPE": 0,
    "CLASSIFICATION_TYPE": "U",
    "NORAD_CAT_ID": 53254,
    "ELEMENT_SET_NO": 999,
    "REV_AT_EPOCH": 18318,
    "BSTAR": 0.0,
    "MEAN_MOTION_DOT": -0.00016101,
    "MEAN_MOTION_DDOT": 0.0,
    "TLE_LINE1": "1 53254U 22086N   25315.13715896 -.00016101  00000+0 -99391-3 0  9997",
    "TLE_LINE2": "2 53254  53.2193   6.3322 0000836  66.2261 293.8819 15.08910572183189",
    "COMMENT": "Grouped by shell and plane from TLE"
  },
  {
    "OBJECT_NAME": "STARLINK-4142",
    "OBJECT_ID": "22086P",
    "EPOCH": "2025-11-11T02:54:55.880640",
    "MEAN_MOTION": 15.08861962,
    "ECCENTRICITY": 0.0001674,
    "INCLINATION": 53.2196,
    "RA_OF_ASC_NODE": 6.3972,
    "ARG_OF_PERICENTER": 78.5792,
    "MEAN_ANOMALY": 281.5388,
    "EPHEMERIS_TYPE": 0,
    "CLASSIFICATION_TYPE": "U",
    "NORAD_CAT_ID": 53255,
    "ELEMENT_SET_NO": 999,
    "REV_AT_EPOCH": 18316,
    "BSTAR": 0.00022125,
    "MEAN_MOTION_DOT": 3.237e-05,
    "MEAN_MOTION_DDOT": 0.0,
    "TLE_LINE1": "1 53255U 22086P   25315.12148010  .00003237  00000+0  22125-3 0  9990",
    "TLE_LINE2": "2 53255  53.2196   6.3972 0001674  78.5792 281.5388 15.08861962183161",
    "COMMENT": "Grouped by shell and plane from TLE"
  },
  {
    "OBJECT_NAME": "STARLINK-4147",
    "OBJECT_ID": "22086Q",
    "EPOCH": "2025-11-11T04:35:38.599008",
    "MEAN_MOTION": 15.08838926,
    "ECCENTRICITY": 0.0001281,
    "INCLINATION": 53.2188,
    "RA_OF_ASC_NODE": 6.0802,
    "ARG_OF_PERICENTER": 94.1451,
    "MEAN_ANOMALY": 265.9688,
    "EPHEMERIS_TYPE": 0,
    "CLASSIFICATION_TYPE": "U",
    "NORAD_CAT_ID": 53256,
    "ELEMENT_SET_NO": 999,
    "REV_AT_EPOCH": 18317,
    "BSTAR": 5.8941000000000004e-05,
    "MEAN_MOTION_DOT": 6.5e-06,
    "MEAN_MOTION_DDOT": 0.0,
    "TLE_LINE1": "1 53256U 22086Q   25315.19141897  .00000650  00000+0  58941-4 0  9996",
    "TLE_LINE2": "2 53256  53.2188   6.0802 0001281  94.1451 265.9688 15.08838926183176",
    "COMMENT": "Grouped by shell and plane from TLE"
  },
  {
    "OBJECT_NAME": "STARLINK-4144",
    "OBJECT_ID": "22086R",
    "EPOCH": "2025-11-11T07:25:13.262592",
    "MEAN_MOTION": 15.08838997,
    "ECCENTRICITY": 0.0001413,
    "INCLINATION": 53.2215,
    "RA_OF_ASC_NODE": 5.5519,
    "ARG_OF_PERICENTER": 101.5651,
    "MEAN_ANOMALY": 258.55,
    "EPHEMERIS_TYPE": 0,
    "CLASSIFICATION_TYPE": "U",
    "NORAD_CAT_ID": 53257,
    "ELEMENT_SET_NO": 999,
    "REV_AT_EPOCH": 18319,
    "BSTAR": 8.0511e-05,
    "MEAN_MOTION_DOT": 9.94e-06,
    "MEAN_MOTION_DDOT": 0.0,
    "TLE_LINE1": "1 53257U 22086R   25315.30918128  .00000994  00000+0  80511-4 0  9998",
    "TLE_LINE2": "2 53257  53.2215   5.5519 0001413 101.5651 258.5500 15.08838997183190",
    "COMMENT": "Grouped by shell and plane from TLE"
  },
  {
    "OBJECT_NAME": "STARLINK-4127",
    "OBJECT_ID": "22086S",
    "EPOCH": "2025-11-11T04:25:02.627616",
    "MEAN_MOTION": 15.08841027,
    "ECCENTRICITY": 0.0001232,
    "INCLINATION": 53.2193,
    "RA_OF_ASC_NODE": 6.1129,
    "ARG_OF_PERICENTER": 102.4858,
    "MEAN_ANOMALY": 257.6272,
    "EPHEMERIS_TYPE": 0,
    "CLASSIFICATION_TYPE": "U",
    "NORAD_CAT_ID": 53258,
    "ELEMENT_SET_NO": 999,
    "REV_AT_EPOCH": 18317,
    "BSTAR": 9.2247e-05,
    "MEAN_MOTION_DOT": 1.181e-05,
    "MEAN_MOTION_DDOT": 0.0,
    "TLE_LINE1": "1 53258U 22086S   25315.18405819  .00001181  00000+0  92247-4 0  9991",
    "TLE_LINE2": "2 53258  53.2193   6.1129 0001232 102.4858 257.6272 15.08841027183170",
    "COMMENT": "Grouped by shell and plane from TLE"
  },
  {
    "OBJECT_NAME": "STARLINK-4140",
    "OBJECT_ID": "22086T",
    "EPOCH": "2025-11-11T03:21:23.346720",
    "MEAN_MOTION": 15.08843194,
    "ECCENTRICITY": 0.0001323,
    "INCLINATION": 53.2182,
    "RA_OF_ASC_NODE": 5.9533,
    "ARG_OF_PERICENTER": 84.6493,
    "MEAN_ANOMALY": 275.465,
    "EPHEMERIS_TYPE": 0,
    "CLASSIFICATION_TYPE": "U",
    "NORAD_CAT_ID": 53259,
    "ELEMENT_SET_NO": 999,
    "REV_AT_EPOCH": 18317,
    "BSTAR": 4.4281e-05,
    "MEAN_MOTION_DOT": 4.17e-06,
    "MEAN_MOTION_DDOT": 0.0,
    "TLE_LINE1": "1 53259U 22086T   25315.13985355  .00000417  00000+0  44281-4 0  9991",
    "TLE_LINE2": "2 53259  53.2182   5.9533 0001323  84.6493 275.4650 15.08843194183177",
    "COMMENT": "Grouped by shell and plane from TLE"
  },
  {
    "OBJECT_NAME": "STARLINK-4062",
    "OBJECT_ID": "22086V",
    "EPOCH": "2025-11-11T07:09:19.041984",
    "MEAN_MOTION": 15.0883833,
    "ECCENTRICITY": 0.0001367,
    "INCLINATION": 53.2177,
    "RA_OF_ASC_NODE": 5.5991,
    "ARG_OF_PERICENTER": 90.8674,
    "MEAN_ANOMALY": 269.2474,
    "EPHEMERIS_TYPE": 0,
    "CLASSIFICATION_TYPE": "U",
    "NORAD_CAT_ID": 53261,
    "ELEMENT_SET_NO": 999,
    "REV_AT_EPOCH": 18319,
    "BSTAR": 5.5851e-05,
    "MEAN_MOTION_DOT": 6.01e-06,
    "MEAN_MOTION_DDOT": 0.0,
    "TLE_LINE1": "1 53261U 22086V   25315.29813706  .00000601  00000+0  55851-4 0  9991",
    "TLE_LINE2": "2 53261  53.2177   5.5991 0001367  90.8674 269.2474 15.08838330183199",
    "COMMENT": "Grouped by shell and plane from TLE"
  },
  {
    "OBJECT_NAME": "STARLINK-4085",
    "OBJECT_ID": "22086W",
    "EPOCH": "2025-11-11T07:19:54.995232",
    "MEAN_MOTION": 15.08840931,
    "ECCENTRICITY": 0.0001379,
    "INCLINATION": 53.2188,
    "RA_OF_ASC_NODE": 5.5676,
    "ARG_OF_PERICENTER": 89.0255,
    "MEAN_ANOMALY": 271.0896,
    "EPHEMERIS_TYPE": 0,
    "CLASSIFICATION_TYPE": "U",
    "NORAD_CAT_ID": 53262,
    "ELEMENT_SET_NO": 999,
    "REV_AT_EPOCH": 18319,
    "BSTAR": 6.7623e-05,
    "MEAN_MOTION_DOT": 7.88e-06,
    "MEAN_MOTION_DDOT": 0.0,
    "TLE_LINE1": "1 53262U 22086W   25315.30549763  .00000788  00000+0  67623-4 0  9999",
    "TLE_LINE2": "2 53262  53.2188   5.5676 0001379  89.0255 271.0896 15.08840931183199",
    "COMMENT": "Grouped by shell and plane from TLE"
  },
  {
    "OBJECT_NAME": "STARLINK-4130",
    "OBJECT_ID": "22086X",
    "EPOCH": "2025-11-11T07:04:00.949152",
    "MEAN_MOTION": 15.08833245,
    "ECCENTRICITY": 0.0001419,
    "INCLINATION": 53.218,
    "RA_OF_ASC_NODE": 5.6156,
    "ARG_OF_PERICENTER": 87.4673,
    "MEAN_ANOMALY": 272.6481,
    "EPHEMERIS_TYPE": 0,
    "CLASSIFICATION_TYPE": "U",
    "NORAD_CAT_ID": 53263,
    "ELEMENT_SET_NO": 999,
    "REV_AT_EPOCH": 18319,
    "BSTAR": 0.0001046,
    "MEAN_MOTION_DOT": 1.377e-05,
    "MEAN_MOTION_DDOT": 0.0,
    "TLE_LINE1": "1 53263U 22086X   25315.29445543  .00001377  00000+0  10460-3 0  9990",
    "TLE_LINE2": "2 53263  53.2180   5.6156 0001419  87.4673 272.6481 15.08833245183194",
    "COMMENT": "Grouped by shell and plane from TLE"
  }
]